{
  "type": "FeatureCollection",
  "features": [
    {
      "type": "Feature",
      "properties": {
        "norad_id": 32353,
        "name": "FENGYUN 1C DEB",
        "group": "fengyun-1c-debris",
        "lat": -64.02549321860063,
        "lon": -22.296968091167223,
        "alt_km": 876.6271224208294,
        "timestamp": "2025-12-26T06:43:29.798027+00:00",
        "meta_object_name": "FENGYUN 1C DEB",
        "meta_object_id": "1999-025CYW",
        "meta_epoch": "2025-12-24T05:40:29.330112",
        "meta_mean_motion": 14.03902083,
        "meta_eccentricity": 0.01243796,
        "meta_inclination": 98.9207,
        "meta_ra_of_asc_node": 174.5047,
        "meta_arg_of_pericenter": 167.3058,
        "meta_mean_anomaly": 193.129,
        "meta_ephemeris_type": 0,
        "meta_classification_type": "U",
        "meta_norad_cat_id": 32353,
        "meta_element_set_no": 999,
        "meta_rev_at_epoch": 63355,
        "meta_bstar": 0.0025490541,
        "meta_mean_motion_dot": 4.268e-05,
        "meta_mean_motion_ddot": 0,
        "tle_line1": "1 32353U 99025CYW 25358.23645058  .00004268  00000+0  25491-2 0  9999",
        "tle_line2": "2 32353  98.9207 174.5047 0124379 167.3058 193.1290 14.03902083633554"
      },
      "geometry": {
        "type": "Point",
        "coordinates": [
          -22.296968091167223,
          -64.02549321860063
        ]
      }
    },
    {
      "type": "Feature",
      "properties": {
        "norad_id": 32355,
        "name": "FENGYUN 1C DEB",
        "group": "fengyun-1c-debris",
        "lat": -29.465474783618024,
        "lon": -59.46663593048066,
        "alt_km": 413.8897054115296,
        "timestamp": "2025-12-26T06:43:29.798038+00:00",
        "meta_object_name": "FENGYUN 1C DEB",
        "meta_object_id": "1999-025CYY",
        "meta_epoch": "2025-12-20T14:58:00.151104",
        "meta_mean_motion": 15.46351214,
        "meta_eccentricity": 0.0028321,
        "meta_inclination": 100.3409,
        "meta_ra_of_asc_node": 286.5316,
        "meta_arg_of_pericenter": 70.0985,
        "meta_mean_anomaly": 54.5123,
        "meta_ephemeris_type": 0,
        "meta_classification_type": "U",
        "meta_norad_cat_id": 32355,
        "meta_element_set_no": 999,
        "meta_rev_at_epoch": 65112,
        "meta_bstar": 0.008971,
        "meta_mean_motion_dot": 0.00476436,
        "meta_mean_motion_ddot": 0,
        "tle_line1": "1 32355U 99025CYY 25354.62361286  .00476436  00000+0  89710-2 0  9992",
        "tle_line2": "2 32355 100.3409 286.5316 0028321  70.0985  54.5123 15.46351214651120"
      },
      "geometry": {
        "type": "Point",
        "coordinates": [
          -59.46663593048066,
          -29.465474783618024
        ]
      }
    },
    {
      "type": "Feature",
      "properties": {
        "norad_id": 32356,
        "name": "FENGYUN 1C DEB",
        "group": "fengyun-1c-debris",
        "lat": 59.54103607398727,
        "lon": -154.63746723348368,
        "alt_km": 857.0981348855457,
        "timestamp": "2025-12-26T06:43:29.798048+00:00",
        "meta_object_name": "FENGYUN 1C DEB",
        "meta_object_id": "1999-025CYZ",
        "meta_epoch": "2025-12-22T20:18:51.506208",
        "meta_mean_motion": 14.03451299,
        "meta_eccentricity": 0.01261583,
        "meta_inclination": 102.4963,
        "meta_ra_of_asc_node": 222.8166,
        "meta_arg_of_pericenter": 351.4659,
        "meta_mean_anomaly": 8.4349,
        "meta_ephemeris_type": 0,
        "meta_classification_type": "U",
        "meta_norad_cat_id": 32356,
        "meta_element_set_no": 999,
        "meta_rev_at_epoch": 68529,
        "meta_bstar": 0.0023312729,
        "meta_mean_motion_dot": 3.845e-05,
        "meta_mean_motion_ddot": 0,
        "tle_line1": "1 32356U 99025CYZ 25356.84642947  .00003845  00000+0  23313-2 0  9992",
        "tle_line2": "2 32356 102.4963 222.8166 0126158 351.4659   8.4349 14.03451299685295"
      },
      "geometry": {
        "type": "Point",
        "coordinates": [
          -154.63746723348368,
          59.54103607398727
        ]
      }
    },
    {
      "type": "Feature",
      "properties": {
        "norad_id": 32357,
        "name": "FENGYUN 1C DEB",
        "group": "fengyun-1c-debris",
        "lat": 0.1592540259806774,
        "lon": 38.55157272727337,
        "alt_km": 1320.1715348325997,
        "timestamp": "2025-12-26T06:43:29.798059+00:00",
        "meta_object_name": "FENGYUN 1C DEB",
        "meta_object_id": "1999-025CZA",
        "meta_epoch": "2025-12-13T21:20:47.666112",
        "meta_mean_motion": 13.68708108,
        "meta_eccentricity": 0.04907347,
        "meta_inclination": 98.8577,
        "meta_ra_of_asc_node": 27.1403,
        "meta_arg_of_pericenter": 184.5127,
        "meta_mean_anomaly": 353.61,
        "meta_ephemeris_type": 0,
        "meta_classification_type": "U",
        "meta_norad_cat_id": 32357,
        "meta_element_set_no": 999,
        "meta_rev_at_epoch": 66803,
        "meta_bstar": 0.0036548407,
        "meta_mean_motion_dot": 7.308e-05,
        "meta_mean_motion_ddot": 0,
        "tle_line1": "1 32357U 99025CZA 25347.88944058  .00007308  00000+0  36548-2 0  9997",
        "tle_line2": "2 32357  98.8577  27.1403 0490734 184.5127 353.6100 13.68708108668031"
      },
      "geometry": {
        "type": "Point",
        "coordinates": [
          38.55157272727337,
          0.1592540259806774
        ]
      }
    },
    {
      "type": "Feature",
      "properties": {
        "norad_id": 32360,
        "name": "FENGYUN 1C DEB",
        "group": "fengyun-1c-debris",
        "lat": -80.9728016086822,
        "lon": -67.76353658451404,
        "alt_km": 737.0439399124843,
        "timestamp": "2025-12-26T06:43:29.798069+00:00",
        "meta_object_name": "FENGYUN 1C DEB",
        "meta_object_id": "1999-025CZD",
        "meta_epoch": "2025-12-24T07:04:44.070528",
        "meta_mean_motion": 13.98404862,
        "meta_eccentricity": 0.02334639,
        "meta_inclination": 98.1032,
        "meta_ra_of_asc_node": 174.2135,
        "meta_arg_of_pericenter": 275.3665,
        "meta_mean_anomaly": 82.0908,
        "meta_ephemeris_type": 0,
        "meta_classification_type": "U",
        "meta_norad_cat_id": 32360,
        "meta_element_set_no": 999,
        "meta_rev_at_epoch": 64978,
        "meta_bstar": 0.0029400127,
        "meta_mean_motion_dot": 5.27e-05,
        "meta_mean_motion_ddot": 0,
        "tle_line1": "1 32360U 99025CZD 25358.29495452  .00005270  00000+0  29400-2 0  9992",
        "tle_line2": "2 32360  98.1032 174.2135 0233463 275.3665  82.0908 13.98404862649783"
      },
      "geometry": {
        "type": "Point",
        "coordinates": [
          -67.76353658451404,
          -80.9728016086822
        ]
      }
    },
    {
      "type": "Feature",
      "properties": {
        "norad_id": 32361,
        "name": "FENGYUN 1C DEB",
        "group": "fengyun-1c-debris",
        "lat": -35.30481072390211,
        "lon": 66.27756790360361,
        "alt_km": 702.7405019125517,
        "timestamp": "2025-12-26T06:43:29.798080+00:00",
        "meta_object_name": "FENGYUN 1C DEB",
        "meta_object_id": "1999-025CZE",
        "meta_epoch": "2025-12-24T03:35:29.284800",
        "meta_mean_motion": 14.51199424,
        "meta_eccentricity": 0.00453947,
        "meta_inclination": 98.8592,
        "meta_ra_of_asc_node": 57.693,
        "meta_arg_of_pericenter": 9.6539,
        "meta_mean_anomaly": 350.5516,
        "meta_ephemeris_type": 0,
        "meta_classification_type": "U",
        "meta_norad_cat_id": 32361,
        "meta_element_set_no": 999,
        "meta_rev_at_epoch": 96510,
        "meta_bstar": 0.001878622,
        "meta_mean_motion_dot": 7.518e-05,
        "meta_mean_motion_ddot": 0,
        "tle_line1": "1 32361U 99025CZE 25358.14964450  .00007518  00000+0  18786-2 0  9998",
        "tle_line2": "2 32361  98.8592  57.6930 0045394   9.6539 350.5516 14.51199424965101"
      },
      "geometry": {
        "type": "Point",
        "coordinates": [
          66.27756790360361,
          -35.30481072390211
        ]
      }
    },
    {
      "type": "Feature",
      "properties": {
        "norad_id": 32362,
        "name": "FENGYUN 1C DEB",
        "group": "fengyun-1c-debris",
        "lat": 63.98463951259855,
        "lon": 172.51397905493548,
        "alt_km": 1155.022692082477,
        "timestamp": "2025-12-26T06:43:29.798090+00:00",
        "meta_object_name": "FENGYUN 1C DEB",
        "meta_object_id": "1999-025CZF",
        "meta_epoch": "2025-12-24T04:53:41.858880",
        "meta_mean_motion": 13.65242821,
        "meta_eccentricity": 0.02730649,
        "meta_inclination": 99.8463,
        "meta_ra_of_asc_node": 329.5614,
        "meta_arg_of_pericenter": 256.2652,
        "meta_mean_anomaly": 100.796,
        "meta_ephemeris_type": 0,
        "meta_classification_type": "U",
        "meta_norad_cat_id": 32362,
        "meta_element_set_no": 999,
        "meta_rev_at_epoch": 91286,
        "meta_bstar": 0.0020919161,
        "meta_mean_motion_dot": 2.144e-05,
        "meta_mean_motion_ddot": 0,
        "tle_line1": "1 32362U 99025CZF 25358.20395670  .00002144  00000+0  20919-2 0  9999",
        "tle_line2": "2 32362  99.8463 329.5614 0273064 256.2652 100.7960 13.65242821912860"
      },
      "geometry": {
        "type": "Point",
        "coordinates": [
          172.51397905493548,
          63.98463951259855
        ]
      }
    }
  ]
}